NORAD_CAT_ID,OBJECT_NAME,OBJECT_TYPE,EPOCH,MEAN_MOTION,ECCENTRICITY,INCLINATION,RA_OF_ASC_NODE,ARG_OF_PERICENTER,MEAN_ANOMALY,BSTAR,MEAN_MOTION_DOT,MEAN_MOTION_DDOT,TLE_LINE0,TLE_LINE1,TLE_LINE2,SEMIMAJOR_AXIS,PERIOD,APOGEE,PERIGEE,DECAYED
53609.0,STARLINK-4660,PAYLOAD,2023-10-16 03:46:11,15.08871248,0.0001381,53.2172,209.2411,86.6176,273.4974,0.0017749,0.00028097,0.0,0 STARLINK-4660,1 53609U 22104X   23289.15707237  .00028097  00000-0  17749-2 0  9994,2 53609  53.2172 209.2411 0001381  86.6176 273.4974 15.08871248 62829,6917.785,95.436,540.605,538.695,0.0
53609.0,STARLINK-4660,PAYLOAD,2023-10-16 11:43:06,15.08857323,0.0001628,53.2167,207.7542,94.5793,265.5385,0.00070647,0.00010979,0.0,0 STARLINK-4660,1 53609U 22104X   23289.48827215  .00010979  00000-0  70647-3 0  9996,2 53609  53.2167 207.7542 0001628  94.5793 265.5385 15.08857323 62879,6917.827,95.436,540.819,538.566,0.0
53609.0,STARLINK-4660,PAYLOAD,2023-10-17 11:33:52,15.08861156,9.87e-05,53.2158,203.2883,248.5471,111.5416,0.00073537,0.00011442,0.0,0 STARLINK-4660,1 53609U 22104X   23290.48185475  .00011442  00000-0  73537-3 0  9990,2 53609  53.2158 203.2883 0000987 248.5471 111.5416 15.08861156 63021,6917.816,95.436,540.364,538.998,0.0
53609.0,STARLINK-4660,PAYLOAD,2023-10-18 01:52:21,15.08846452,0.0001453,53.216,200.617,86.2923,273.8235,0.0010495,0.00016457,0.0,0 STARLINK-4660,1 53609U 22104X   23291.07802714  .00016457  00000-0  10495-2 0  9992,2 53609  53.2160 200.6170 0001453  86.2923 273.8235 15.08846452 63801,6917.861,95.437,540.731,538.721,0.0
53609.0,STARLINK-4660,PAYLOAD,2023-10-18 11:24:40,15.08846434,0.0001879,53.2155,198.8322,81.1553,278.9652,0.00034695,5.239e-05,0.0,0 STARLINK-4660,1 53609U 22104X   23291.47546958  .00005239  00000-0  34695-3 0  9996,2 53609  53.2155 198.8322 0001879  81.1553 278.9652 15.08846434 63176,6917.861,95.437,541.026,538.426,0.0
53609.0,STARLINK-4660,PAYLOAD,2023-10-19 00:07:45,15.08845224,0.0001453,53.2164,196.4495,91.8585,268.2574,0.00065154,0.00010098,0.0,0 STARLINK-4660,1 53609U 22104X   23292.00538952  .00010098  00000-0  65154-3 0  9994,2 53609  53.2164 196.4495 0001453  91.8585 268.2574 15.08845224 63948,6917.864,95.437,540.735,538.724,0.0
53609.0,STARLINK-4660,PAYLOAD,2023-10-19 22:23:09,15.08858102,0.0001672,53.2171,192.289,80.5407,279.5774,0.00062961,9.751e-05,0.0,0 STARLINK-4660,1 53609U 22104X   23292.93274437  .00009751  00000-0  62961-3 0  9998,2 53609  53.2171 192.2890 0001672  80.5407 279.5774 15.08858102 64082,6917.825,95.436,540.847,538.533,0.0
53609.0,STARLINK-4660,PAYLOAD,2023-10-19 23:58:32,15.08864029,0.0001304,53.2152,191.9898,93.1141,267.0001,0.00078096,0.00012171,0.0,0 STARLINK-4660,1 53609U 22104X   23292.99898168  .00012171  00000-0  78096-3 0  9993,2 53609  53.2152 191.9898 0001304  93.1141 267.0001 15.08864029 63407,6917.807,95.436,540.574,538.77,0.0
53609.0,STARLINK-4660,PAYLOAD,2023-10-20 20:38:33,15.08825702,0.0001138,53.2162,188.1257,92.8655,267.2468,-0.00024134,-4.125e-05,0.0,0 STARLINK-4660,1 53609U 22104X   23293.86011027 -.00004125  00000-0 -24134-3 0  9997,2 53609  53.2162 188.1257 0001138  92.8655 267.2468 15.08825702 63534,6917.924,95.438,540.576,539.002,0.0
53609.0,STARLINK-4660,PAYLOAD,2023-10-20 22:13:56,15.08831548,0.0001334,53.2169,187.8258,113.1732,246.94,-8.7063e-05,-1.673e-05,0.0,0 STARLINK-4660,1 53609U 22104X   23293.92635056 -.00001673  00000-0 -87063-4 0  9994,2 53609  53.2169 187.8258 0001334 113.1732 246.9400 15.08831548 64232,6917.906,95.438,540.694,538.848,0.0
53609.0,STARLINK-4660,PAYLOAD,2023-10-21 03:00:06,15.08829099,0.0001082,53.2167,186.9349,91.7623,268.3493,1.8237e-05,2e-08,0.0,0 STARLINK-4660,1 53609U 22104X   23294.12507395  .00000002  00000-0  18237-4 0  9991,2 53609  53.2167 186.9349 0001082  91.7623 268.3493 15.08829099 64262,6917.914,95.438,540.527,539.03,0.0
53609.0,STARLINK-4660,PAYLOAD,2023-10-21 20:29:20,15.08848579,0.0001215,53.2165,183.665,104.8324,255.2803,0.00076873,0.0001197,0.0,0 STARLINK-4660,1 53609U 22104X   23294.85370908  .00011970  00000-0  76873-3 0  9994,2 53609  53.2165 183.6650 0001215 104.8324 255.2803 15.08848579 63680,6917.854,95.437,540.56,538.879,0.0
53609.0,STARLINK-4660,PAYLOAD,2023-10-21 22:04:43,15.08854589,0.0001275,53.2168,183.3683,106.9084,253.2048,0.00094655,0.00014814,0.0,0 STARLINK-4660,1 53609U 22104X   23294.91994801  .00014814  00000-0  94655-3 0  9993,2 53609  53.2168 183.3683 0001275 106.9084 253.2048 15.08854589 64383,6917.836,95.437,540.583,538.819,0.0
53609.0,STARLINK-4660,PAYLOAD,2023-10-22 09:12:25,15.08840849,0.0001124,53.2166,181.287,92.3438,267.7682,0.00037242,5.644e-05,0.0,0 STARLINK-4660,1 53609U 22104X   23295.38363138  .00005644  00000-0  37242-3 0  9998,2 53609  53.2166 181.2870 0001124  92.3438 267.7682 15.08840849 63769,6917.878,95.438,540.52,538.965,0.0
53609.0,STARLINK-4660,PAYLOAD,2023-10-22 20:20:08,15.08830035,8.69e-05,53.2163,179.2064,104.6855,255.4234,-0.00020395,-3.531e-05,0.0,0 STARLINK-4660,1 53609U 22104X   23295.84731517 -.00003531  00000-0 -20395-3 0  9995,2 53609  53.2163 179.2064 0000869 104.6855 255.4234 15.08830035 63834,6917.911,95.438,540.377,539.175,0.0
53609.0,STARLINK-4660,PAYLOAD,2023-10-22 21:55:31,15.0883099,9.32e-05,53.2162,178.9089,108.702,251.4073,-2.6308e-05,-7.06e-06,0.0,0 STARLINK-4660,1 53609U 22104X   23295.91355442 -.00000706  00000-0 -26308-4 0  9994,2 53609  53.2162 178.9089 0000932 108.7020 251.4073 15.08830990 64531,6917.908,95.438,540.418,539.128,0.0
53609.0,STARLINK-4660,PAYLOAD,2023-10-23 04:17:04,15.08827784,9.15e-05,53.2161,177.7199,116.8341,243.2744,0.0012517,0.00019682,0.0,0 STARLINK-4660,1 53609U 22104X   23296.17851950  .00019682  00000-0  12517-2 0  9994,2 53609  53.2161 177.7199 0000915 116.8341 243.2744 15.08827784 63884,6917.918,95.438,540.416,539.15,0.0
53609.0,STARLINK-4660,PAYLOAD,2023-10-23 21:46:18,15.08850448,9.01e-05,53.2161,174.4493,119.8183,240.2899,0.0011479,0.00018033,0.0,0 STARLINK-4660,1 53609U 22104X   23296.90715982  .00018033  00000-0  11479-2 0  9994,2 53609  53.2161 174.4493 0000901 119.8183 240.2899 15.08850448 64687,6917.848,95.437,540.337,539.09,0.0
53609.0,STARLINK-4660,PAYLOAD,2023-10-24 08:54:00,15.08851766,8.44e-05,53.2158,172.3671,113.0188,247.0893,0.0005183,7.973e-05,0.0,0 STARLINK-4660,1 53609U 22104X   23297.37083681  .00007973  00000-0  51830-3 0  9997,2 53609  53.2158 172.3671 0000844 113.0188 247.0893 15.08851766 64060,6917.844,95.437,540.293,539.126,0.0
53609.0,STARLINK-4660,PAYLOAD,2023-10-25 21:27:52,15.08843367,9.03e-05,53.2163,165.5287,98.3303,261.7792,4.8586e-05,4.86e-06,0.0,0 STARLINK-4660,1 53609U 22104X   23298.89435696  .00000486  00000-0  48586-4 0  9999,2 53609  53.2163 165.5287 0000903  98.3303 261.7792 15.08843367 64297,6917.87,95.437,540.36,539.11,0.0
53609.0,STARLINK-4660,PAYLOAD,2023-10-26 00:38:38,15.08849269,8.13e-05,53.2161,164.9327,111.8029,248.305,0.00011596,1.559e-05,0.0,0 STARLINK-4660,1 53609U 22104X   23299.02683458  .00001559  00000-0  11596-3 0  9998,2 53609  53.2161 164.9327 0000813 111.8029 248.3050 15.08849269 65004,6917.852,95.437,540.279,539.155,0.0
53609.0,STARLINK-4660,PAYLOAD,2023-10-26 21:18:39,15.0884892,0.0001173,53.2164,161.0673,54.5108,305.5994,0.00027126,4.033e-05,0.0,0 STARLINK-4660,1 53609U 22104X   23299.88795593  .00004033  00000-0  27126-3 0  9992,2 53609  53.2164 161.0673 0001173  54.5108 305.5994 15.08848920 65130,6917.853,95.437,540.53,538.907,0.0
53609.0,STARLINK-4660,PAYLOAD,2023-10-27 00:29:25,15.08856234,7.46e-05,53.2157,160.4697,104.5514,255.5561,0.00035962,5.443e-05,0.0,0 STARLINK-4660,1 53609U 22104X   23300.02042950  .00005443  00000-0  35962-3 0  9996,2 53609  53.2157 160.4697 0000746 104.5514 255.5561 15.08856234 64469,6917.831,95.437,540.212,539.18,0.0
53609.0,STARLINK-4660,PAYLOAD,2023-10-27 08:26:21,15.08845362,0.0001095,53.2157,158.9858,79.4886,280.6229,0.00017878,2.559e-05,0.0,0 STARLINK-4660,1 53609U 22104X   23300.35163507  .00002559  00000-0  17878-3 0  9995,2 53609  53.2157 158.9858 0001095  79.4886 280.6229 15.08845362 64516,6917.864,95.437,540.487,538.971,0.0
53609.0,STARLINK-4660,PAYLOAD,2023-10-27 21:09:26,15.08843254,9.25e-05,53.2161,156.6066,79.6188,280.4908,8.8222e-05,1.117e-05,0.0,0 STARLINK-4660,1 53609U 22104X   23300.88155494  .00001117  00000-0  88222-4 0  9990,2 53609  53.2161 156.6066 0000925  79.6188 280.4908 15.08843254 65280,6917.87,95.437,540.375,539.096,0.0
53609.0,STARLINK-4660,PAYLOAD,2023-10-28 00:20:12,15.08844328,9.38e-05,53.2162,156.0116,80.2215,279.8883,0.00010379,1.365e-05,0.0,0 STARLINK-4660,1 53609U 22104X   23301.01403398  .00001365  00000-0  10379-3 0  9997,2 53609  53.2162 156.0116 0000938  80.2215 279.8883 15.08844328 65304,6917.867,95.437,540.381,539.083,0.0
53609.0,STARLINK-4660,PAYLOAD,2023-10-28 21:00:14,15.08828722,8.51e-05,53.2166,152.1444,92.9972,267.1117,0.00038052,5.772e-05,0.0,0 STARLINK-4660,1 53609U 22104X   23301.87516348  .00005772  00000-0  38052-3 0  9995,2 53609  53.2166 152.1444 0000851  92.9972 267.1117 15.08828722 64740,6917.915,95.438,540.369,539.191,0.0
53609.0,STARLINK-4660,PAYLOAD,2023-10-29 06:32:32,15.0883321,8.91e-05,53.2164,150.3577,87.6093,272.5001,0.00047081,7.212e-05,0.0,0 STARLINK-4660,1 53609U 22104X   23302.27260303  .00007212  00000-0  47081-3 0  9990,2 53609  53.2164 150.3577 0000891  87.6093 272.5001 15.08833210 65497,6917.901,95.438,540.383,539.15,0.0
53609.0,STARLINK-4660,PAYLOAD,2023-10-29 19:15:37,15.08842818,0.0001076,53.216,147.98,83.9682,276.1433,0.00015272,2.144e-05,0.0,0 STARLINK-4660,1 53609U 22104X   23302.80251720  .00002144  00000-0  15272-3 0  9998,2 53609  53.2160 147.9800 0001076  83.9682 276.1433 15.08842818 64888,6917.872,95.437,540.481,538.992,0.0
53609.0,STARLINK-4660,PAYLOAD,2023-10-29 20:51:00,15.08847797,9.5e-05,53.2161,147.6832,81.2439,278.8661,0.00024374,3.594e-05,0.0,0 STARLINK-4660,1 53609U 22104X   23302.86875422  .00003594  00000-0  24374-3 0  9998,2 53609  53.2161 147.6832 0000950  81.2439 278.8661 15.08847797 65583,6917.857,95.437,540.379,539.064,0.0
